W
TDRS 3                  
1 19548U 88091B   21078.09868219 -.00000296  00000-0  00000+0 0  9991
2 19548  14.0210 355.0313 0039407 325.7778 202.3400  1.00282750106158
HST                     
1 20580U 90037B   21078.35481446  .00000630  00000-0  27182-4 0  9990
2 20580  28.4700 301.2153 0002729 169.7921 353.2485 15.09586485497638
TDRS 5                  
1 21639U 91054B   21077.83699054  .00000087  00000-0  00000-0 0  9996
2 21639  14.2539   8.3452 0027286   0.3450 301.6681  1.00267693108497
TDRS 6                  
1 22314U 93003B   21078.09687524 -.00000292  00000-0  00000+0 0  9999
2 22314  14.0865  11.5274 0008269  63.5333  90.6423  1.00266091103166
TDRS 7                  
1 23613U 95035B   21077.88882703 -.00000199  00000-0  00000-0 0  9998
2 23613  14.1306   2.2097 0030076  33.7259 185.6112  1.00271996 94032
ISS (ZARYA)             
1 25544U 98067A   21078.48606660  .00000671  00000-0  20400-4 0  9998
2 25544  51.6447  66.3862 0003396 126.6849 319.5192 15.48916648274697
LANDSAT 7               
1 25682U 99020A   21078.42164346  .00000047  00000-0  20192-4 0  9990
2 25682  98.0436 138.4267 0001852  85.0095 275.1325 14.57197006166287
TERRA                   
1 25994U 99068A   21078.47664677  .00000063  00000-0  23916-4 0  9990
2 25994  98.1827 154.5217 0001239  94.9209 322.3671 14.57126058130365
TDRS 8                  
1 26388U 00034A   21077.87881811 -.00000225  00000-0  00000-0 0  9993
2 26388   9.6568  45.6579 0021711 326.6376 209.4930  1.00262651 75961
TIMED                   
1 26998U 01055B   21078.06757173  .00000101  00000-0  14946-4 0  9999
2 26998  74.0708 106.4896 0000820 241.2283 118.8816 14.88280689 45396
TDRS 9                  
1 27389U 02011A   21078.23003876 -.00000285  00000-0  00000+0 0  9995
2 27389   8.0624  64.9215 0027779 287.1433 205.5074  1.00271975 71225
AQUA                    
1 27424U 02022A   21078.51101398  .00000100  00000-0  32132-4 0  9997
2 27424  98.2017  21.1646 0001075 134.3185 356.8205 14.57109770  3975
TDRS 10                 
1 27566U 02055A   21077.74474858  .00000091  00000-0  00000-0 0  9992
2 27566   7.3864  52.3258 0011442 302.2328 278.8585  1.00273217 67013
SORCE                   
1 27651U 03004A   21078.13131483  .00000185  00000-0  33228-4 0  9996
2 27651  39.9946 238.0951 0021598 154.5859 205.5996 14.89257731985187
AURA                    
1 28376U 04026A   21077.94230224  .00000236  00000-0  62448-4 0  9990
2 28376  98.2015  22.7601 0001460  89.6524 270.4842 14.57108866886898
SWIFT                   
1 28485U 04047A   21077.86549876  .00001063  00000-0  41944-4 0  9998
2 28485  20.5562 263.5050 0010945 289.2043  70.7207 15.04904914894839
THEMIS A                
1 30580U 07004A   21078.04369789 -.00000153  00000-0  00000+0 0  9990
2 30580  16.3396  24.2729 8391279  81.1409 354.5442  0.87835247 49121
THEMIS D                
1 30797U 07004D   21077.58157622 -.00000155  00000-0  00000+0 0  9991
2 30797  13.7606   9.1538 8364858  98.0777 214.0162  0.87837458 48645
THEMIS E                
1 30798U 07004E   21076.93595431 -.00000176  00000-0  00000+0 0  9997
2 30798  13.3960  20.8353 8355872  89.1919 353.2764  0.87841568 49041
AIM                     
1 31304U 07015A   21077.74544125  .00001251  00000-0  72441-4 0  9994
2 31304  97.8776 336.3302 0006137 128.4893 231.6889 15.14197393762183
FGRST (GLAST)           
1 33053U 08029A   21077.90059953  .00000606  00000-0  17804-4 0  9996
2 33053  25.5837  31.2289 0011994 305.1693  54.7719 15.11480092704782
WISE                    
1 36119U 09071A   21078.09461179  .00001195  00000-0  42804-4 0  9990
2 36119  97.2960 116.2279 0004081 112.6775 247.4898 15.30679896625824
TDRS 11                 
1 39070U 13004A   21077.74241053  .00000078  00000-0  00000-0 0  9995
2 39070   3.4502 335.9460 0006204  35.6804 257.8138  1.00267454 27476
TDRS 12                 
1 39504U 14004A   21077.46487733 -.00000271  00000-0  00000+0 0  9999
2 39504   4.3258 340.8426 0001543  59.3530 262.4823  1.00273081 26221
GPM-CORE                
1 39574U 14009C   21078.28585696  .00003500  00000-0  53952-4 0  9995
2 39574  65.0050 296.8425 0011416 285.9103  74.0785 15.56107205400808
MMS 1                   
1 40482U 15011A   21076.33333333 -.00001319  00000-0  00000-0 0  9991
2 40482  32.7475 117.9484 8437111  30.0805  66.5041  0.28551400 12003
MMS 2                   
1 40483U 15011B   21076.12374156 -.00001316  00000-0  00000+0 0  9993
2 40483  32.7424 117.9402 8436866  30.0854  44.9814  0.28549567 11972
MMS 3                   
1 40484U 15011C   21075.73331763 -.00001310  00000-0  00000-0 0  9992
2 40484  32.7325 117.9393 8437980  30.0839   4.8583  0.28544685 11742
MMS 4                   
1 40485U 15011D   21075.66867301 -.00001309  00000-0  00000-0 0  9995
2 40485  32.7375 117.9610 8436738  30.0747 358.2107  0.28553470 11940
TDRS 13                 
1 42915U 17047A   21078.28634549 -.00000101  00000-0  00000+0 0  9991
2 42915   5.1537 330.7316 0016370  92.5518 205.2951  1.00272755 13168
JPSS-1                  
1 43013U 17073A   21078.38607927  .00000010  00000-0  25305-4 0  9999
2 43013  98.7132  18.4340 0000804  84.0667 276.0601 14.19538842172665
